{
  "type": "FeatureCollection",
  "features": [
    {
      "type": "Feature",
      "properties": {
        "norad_id": 44334,
        "name": "EUTELSAT 7C",
        "group": "eutelsat",
        "lat": 0.012937080098464344,
        "lon": 0.43197451909906015,
        "alt_km": 35791.06129024116,
        "timestamp": "2025-12-16T17:51:10.595755+00:00",
        "meta_object_name": "EUTELSAT 7C",
        "meta_object_id": "2019-034B",
        "meta_epoch": "2025-12-15T21:58:54.342336",
        "meta_mean_motion": 1.002713,
        "meta_eccentricity": 0.00030896,
        "meta_inclination": 0.0727,
        "meta_ra_of_asc_node": 177.6823,
        "meta_arg_of_pericenter": 70.5901,
        "meta_mean_anomaly": 173.2556,
        "meta_ephemeris_type": 0,
        "meta_classification_type": "U",
        "meta_norad_cat_id": 44334,
        "meta_element_set_no": 999,
        "meta_rev_at_epoch": 499,
        "meta_bstar": 0,
        "meta_mean_motion_dot": 7.1e-07,
        "meta_mean_motion_ddot": 0,
        "tle_line1": "1 44334U 19034B   25349.91590674  .00000071  00000+0  00000+0 0  9995",
        "tle_line2": "2 44334   0.0727 177.6823 0003089  70.5901 173.2556  1.00271300  4997"
      },
      "geometry": {
        "type": "Point",
        "coordinates": [
          0.43197451909906015,
          0.012937080098464344
        ]
      }
    },
    {
      "type": "Feature",
      "properties": {
        "norad_id": 44624,
        "name": "EUTELSAT 5 WEST B",
        "group": "eutelsat",
        "lat": 0.015461805055765073,
        "lon": -11.544274411432937,
        "alt_km": 35784.37258516522,
        "timestamp": "2025-12-16T17:51:10.595767+00:00",
        "meta_object_name": "EUTELSAT 5 WEST B",
        "meta_object_id": "2019-067A",
        "meta_epoch": "2025-12-15T01:22:44.632992",
        "meta_mean_motion": 1.00272503,
        "meta_eccentricity": 0.00032173,
        "meta_inclination": 0.0649,
        "meta_ra_of_asc_node": 338.3897,
        "meta_arg_of_pericenter": 286.2375,
        "meta_mean_anomaly": 195.0282,
        "meta_ephemeris_type": 0,
        "meta_classification_type": "U",
        "meta_norad_cat_id": 44624,
        "meta_element_set_no": 999,
        "meta_rev_at_epoch": 2259,
        "meta_bstar": 0,
        "meta_mean_motion_dot": -2.2e-07,
        "meta_mean_motion_ddot": 0,
        "tle_line1": "1 44624U 19067A   25349.05746103 -.00000022  00000+0  00000+0 0  9995",
        "tle_line2": "2 44624   0.0649 338.3897 0003217 286.2375 195.0282  1.00272503 22593"
      },
      "geometry": {
        "type": "Point",
        "coordinates": [
          -11.544274411432937,
          0.015461805055765073
        ]
      }
    },
    {
      "type": "Feature",
      "properties": {
        "norad_id": 45027,
        "name": "EUTELSAT KONNECT",
        "group": "eutelsat",
        "lat": -0.05875589833050264,
        "lon": 0.6226279740169421,
        "alt_km": 35784.85340594507,
        "timestamp": "2025-12-16T17:51:10.595779+00:00",
        "meta_object_name": "EUTELSAT KONNECT",
        "meta_object_id": "2020-005B",
        "meta_epoch": "2025-12-15T21:00:38.918016",
        "meta_mean_motion": 1.00270513,
        "meta_eccentricity": 0.00013543,
        "meta_inclination": 0.0713,
        "meta_ra_of_asc_node": 96.4477,
        "meta_arg_of_pericenter": 189.8624,
        "meta_mean_anomaly": 120.8248,
        "meta_ephemeris_type": 0,
        "meta_classification_type": "U",
        "meta_norad_cat_id": 45027,
        "meta_element_set_no": 999,
        "meta_rev_at_epoch": 2249,
        "meta_bstar": 0,
        "meta_mean_motion_dot": 7.2e-07,
        "meta_mean_motion_ddot": 0,
        "tle_line1": "1 45027U 20005B   25349.87545044  .00000072  00000+0  00000+0 0  9992",
        "tle_line2": "2 45027   0.0713  96.4477 0001354 189.8624 120.8248  1.00270513 22490"
      },
      "geometry": {
        "type": "Point",
        "coordinates": [
          0.6226279740169421,
          -0.05875589833050264
        ]
      }
    },
    {
      "type": "Feature",
      "properties": {
        "norad_id": 49056,
        "name": "EUTELSAT QUANTUM",
        "group": "eutelsat",
        "lat": 0.02610628187350674,
        "lon": 41.166664009266185,
        "alt_km": 35793.95345441077,
        "timestamp": "2025-12-16T17:51:10.595791+00:00",
        "meta_object_name": "EUTELSAT QUANTUM",
        "meta_object_id": "2021-069B",
        "meta_epoch": "2025-12-15T22:10:30.730656",
        "meta_mean_motion": 1.0027326,
        "meta_eccentricity": 0.00035735,
        "meta_inclination": 0.0113,
        "meta_ra_of_asc_node": 1.7174,
        "meta_arg_of_pericenter": 275.9192,
        "meta_mean_anomaly": 187.5285,
        "meta_ephemeris_type": 0,
        "meta_classification_type": "U",
        "meta_norad_cat_id": 49056,
        "meta_element_set_no": 999,
        "meta_rev_at_epoch": 1609,
        "meta_bstar": 0,
        "meta_mean_motion_dot": 1.48e-06,
        "meta_mean_motion_ddot": 0,
        "tle_line1": "1 49056U 21069B   25349.92396679  .00000148  00000+0  00000+0 0  9997",
        "tle_line2": "2 49056   0.0113   1.7174 0003573 275.9192 187.5285  1.00273260 16097"
      },
      "geometry": {
        "type": "Point",
        "coordinates": [
          41.166664009266185,
          0.02610628187350674
        ]
      }
    },
    {
      "type": "Feature",
      "properties": {
        "norad_id": 53765,
        "name": "EUTELSAT KONNECT VHTS",
        "group": "eutelsat",
        "lat": -0.05233126954547871,
        "lon": -3.8221102277477446,
        "alt_km": 35792.33437835785,
        "timestamp": "2025-12-16T17:51:10.595803+00:00",
        "meta_object_name": "EUTELSAT KONNECT VHTS",
        "meta_object_id": "2022-110A",
        "meta_epoch": "2025-12-15T06:33:09.991584",
        "meta_mean_motion": 1.0027256,
        "meta_eccentricity": 0.00026657,
        "meta_inclination": 0.0637,
        "meta_ra_of_asc_node": 102.1934,
        "meta_arg_of_pericenter": 128.1702,
        "meta_mean_anomaly": 314.8436,
        "meta_ephemeris_type": 0,
        "meta_classification_type": "U",
        "meta_norad_cat_id": 53765,
        "meta_element_set_no": 999,
        "meta_rev_at_epoch": 498,
        "meta_bstar": 0,
        "meta_mean_motion_dot": 3.9e-07,
        "meta_mean_motion_ddot": 0,
        "tle_line1": "1 53765U 22110A   25349.27303231  .00000039  00000+0  00000+0 0  9996",
        "tle_line2": "2 53765   0.0637 102.1934 0002665 128.1702 314.8436  1.00272560  4987"
      },
      "geometry": {
        "type": "Point",
        "coordinates": [
          -3.8221102277477446,
          -0.05233126954547871
        ]
      }
    },
    {
      "type": "Feature",
      "properties": {
        "norad_id": 54048,
        "name": "EUTELSAT HOTBIRD 13F",
        "group": "eutelsat",
        "lat": 0.054634332841838225,
        "lon": 6.407513652626362,
        "alt_km": 35776.20840535741,
        "timestamp": "2025-12-16T17:51:10.595816+00:00",
        "meta_object_name": "EUTELSAT HOTBIRD 13F",
        "meta_object_id": "2022-134A",
        "meta_epoch": "2025-12-14T22:02:26.653056",
        "meta_mean_motion": 1.0027139,
        "meta_eccentricity": 0.00023413,
        "meta_inclination": 0.0492,
        "meta_ra_of_asc_node": 293.4772,
        "meta_arg_of_pericenter": 68.5165,
        "meta_mean_anomaly": 65.4415,
        "meta_ephemeris_type": 0,
        "meta_classification_type": "U",
        "meta_norad_cat_id": 54048,
        "meta_element_set_no": 999,
        "meta_rev_at_epoch": 1152,
        "meta_bstar": 0,
        "meta_mean_motion_dot": 1.07e-06,
        "meta_mean_motion_ddot": 0,
        "tle_line1": "1 54048U 22134A   25348.91836404  .00000107  00000+0  00000+0 0  9996",
        "tle_line2": "2 54048   0.0492 293.4772 0002341  68.5165  65.4415  1.00271390 11520"
      },
      "geometry": {
        "type": "Point",
        "coordinates": [
          6.407513652626362,
          0.054634332841838225
        ]
      }
    },
    {
      "type": "Feature",
      "properties": {
        "norad_id": 54225,
        "name": "EUTELSAT HOTBIRD 13G",
        "group": "eutelsat",
        "lat": 0.041922357493178526,
        "lon": 6.402956612570622,
        "alt_km": 35793.1345015188,
        "timestamp": "2025-12-16T17:51:10.595828+00:00",
        "meta_object_name": "EUTELSAT HOTBIRD 13G",
        "meta_object_id": "2022-146A",
        "meta_epoch": "2025-12-15T18:35:09.269376",
        "meta_mean_motion": 1.00272541,
        "meta_eccentricity": 0.0001793,
        "meta_inclination": 0.0499,
        "meta_ra_of_asc_node": 235.66,
        "meta_arg_of_pericenter": 298.8114,
        "meta_mean_anomaly": 201.9832,
        "meta_ephemeris_type": 0,
        "meta_classification_type": "U",
        "meta_norad_cat_id": 54225,
        "meta_element_set_no": 999,
        "meta_rev_at_epoch": 562,
        "meta_bstar": 0,
        "meta_mean_motion_dot": 1.1e-06,
        "meta_mean_motion_ddot": 0,
        "tle_line1": "1 54225U 22146A   25349.77441284  .00000110  00000+0  00000+0 0  9993",
        "tle_line2": "2 54225   0.0499 235.6600 0001793 298.8114 201.9832  1.00272541  5627"
      },
      "geometry": {
        "type": "Point",
        "coordinates": [
          6.402956612570622,
          0.041922357493178526
        ]
      }
    }
  ]
}